62198,STARLINK-32640,2024,94.27,-1.0,+,43.0,Active,0,LEO,USA,USA,Unknown,Unknown,Unknown,1 62198U 24229G   25295.39760346  .00025910  00000+0  94724-3 0  9991,2 62198  43.0019 331.5265 0001257 274.8885  85.1823 15.27598855 49417,15.27598855,0.0001257,LEO
62199,STARLINK-32653,2024,94.27,-1.0,+,43.0,Active,0,LEO,USA,USA,Unknown,Unknown,Unknown,1 62199U 24229H   25294.37294746  .00034258  00000+0  12477-2 0  9994,2 62199  43.0001 330.6243 0000596 250.7931 109.2856 15.27604891 49338,15.27604891,5.96e-05,LEO
62200,STARLINK-32647,2024,94.26,-1.0,+,43.0,Active,0,LEO,USA,USA,Unknown,Unknown,Unknown,1 62200U 24229J   25295.48483528  .00044069  00000+0  15994-2 0  9996,2 62200  43.0017 331.3156 0000545   3.0408 357.0447 15.27621237 49423,15.27621237,5.45e-05,LEO
62201,STARLINK-32667,2024,94.26,-1.0,+,43.0,Active,0,LEO,USA,USA,Unknown,Unknown,Unknown,1 62201U 24229K   25295.51423740  .00030700  00000+0  11192-2 0  9994,2 62201  43.0021 330.6821 0002007 258.1880 101.8746 15.27617016 49430,15.27617016,0.0002007,LEO
62202,STARLINK-32655,2024,94.26,-1.0,+,43.0,Active,0,LEO,USA,USA,Unknown,Unknown,Unknown,1 62202U 24229L   25295.49639407  .00029366  00000+0  10713-2 0  9995,2 62202  43.0043 331.4062 0002408 285.1967  74.8618 15.27613690 49422,15.2761369,0.0002408,LEO
62203,STARLINK-32665,2024,94.27,-1.0,+,43.0,Active,0,LEO,USA,USA,Unknown,Unknown,Unknown,1 62203U 24229M   25295.47839630  .00043075  00000+0  15683-2 0  9998,2 62203  43.0016 331.2683 0001147 281.1219  78.9504 15.27525495 49429,15.27525495,0.0001147,LEO
62204,STARLINK-32664,2024,94.27,-1.0,+,43.0,Active,0,LEO,USA,USA,Unknown,Unknown,Unknown,1 62204U 24229N   25295.48868929  .00029296  00000+0  10699-2 0  9994,2 62204  43.0024 331.3433 0001324  44.1229 315.9728 15.27578345 49422,15.27578345,0.0001324,LEO
62205,STARLINK-32660,2024,94.26,-1.0,+,43.0,Active,0,LEO,USA,USA,Unknown,Unknown,Unknown,1 62205U 24229P   25295.45335427  .00039577  00000+0  14372-2 0  9999,2 62205  43.0028 317.2098 0001298 271.3452  88.7251 15.27643450 49582,15.2764345,0.0001298,LEO
62206,STARLINK-32448,2024,94.26,-1.0,+,43.0,Active,0,LEO,USA,USA,Unknown,Unknown,Unknown,1 62206U 24229Q   25295.51809640  .00041479  00000+0  15061-2 0  9990,2 62206  43.0020 330.7085 0001673 256.6868 103.3797 15.27629498 49434,15.27629498,0.0001673,LEO
62207,STARLINK-32430,2024,94.26,-1.0,+,43.0,Active,0,LEO,USA,USA,Unknown,Unknown,Unknown,1 62207U 24229R   25295.49043948  .00037790  00000+0  13725-2 0  9995,2 62207  43.0024 327.9105 0001960 287.4931  72.5706 15.27656755 49468,15.27656755,0.000196,LEO
62208,STARLINK-32675,2024,94.26,-1.0,+,43.0,Active,0,LEO,USA,USA,Unknown,Unknown,Unknown,1 62208U 24229S   25295.47455123  .00039754  00000+0  14446-2 0  9999,2 62208  43.0013 331.2378 0001760 274.4811  85.5840 15.27619391 49422,15.27619391,0.000176,LEO
62209,STARLINK-32671,2024,94.27,-1.0,+,43.0,Active,0,LEO,USA,USA,Unknown,Unknown,Unknown,1 62209U 24229T   25295.37975921  .00025120  00000+0  91875-3 0  9996,2 62209  43.0019 332.2451 0001774 265.1668  94.8981 15.27597028 49403,15.27597028,0.0001774,LEO
62210,STARLINK-32670,2024,94.27,-1.0,+,43.0,Active,0,LEO,USA,USA,Unknown,Unknown,Unknown,1 62210U 24229U   25295.40145775  .00034426  00000+0  12537-2 0  9994,2 62210  43.0026 331.5514 0001655 258.5087 101.5579 15.27605488 49414,15.27605488,0.0001655,LEO
62211,STARLINK-32642,2024,94.26,-1.0,+,43.0,Active,0,LEO,USA,USA,Unknown,Unknown,Unknown,1 62211U 24229V   25295.39503639  .00033357  00000+0  12151-2 0  9994,2 62211  43.0017 331.5040 0001083 251.8278 108.2456 15.27609061 49411,15.27609061,0.0001083,LEO
62212,STARLINK-32668,2024,94.26,-1.0,+,43.0,Active,0,LEO,USA,USA,Unknown,Unknown,Unknown,1 62212U 24229W   25295.49431486  .00027900  00000+0  10185-2 0  9998,2 62212  43.0031 327.9366 0001075 263.2988  96.7741 15.27613243 49464,15.27613243,0.0001075,LEO
62213,STARLINK-32669,2024,94.27,-1.0,+,43.0,Active,0,LEO,USA,USA,Unknown,Unknown,Unknown,1 62213U 24229X   25295.50025036  .00030563  00000+0  11146-2 0  9998,2 62213  43.0037 331.4272 0001544 250.8676 109.2009 15.27608064 49422,15.27608064,0.0001544,LEO
