[{"OBJECT_NAME":"STARLINK-32640","OBJECT_ID":"2024-229G","EPOCH":"2025-10-22T09:32:32.938944","MEAN_MOTION":15.27598855,"ECCENTRICITY":0.0001257,"INCLINATION":43.0019,"RA_OF_ASC_NODE":331.5265,"ARG_OF_PERICENTER":274.8885,"MEAN_ANOMALY":85.1823,"EPHEMERIS_TYPE":0,"CLASSIFICATION_TYPE":"U","NORAD_CAT_ID":62198,"ELEMENT_SET_NO":999,"REV_AT_EPOCH":4941,"BSTAR":0.00094724,"MEAN_MOTION_DOT":0.0002591,"MEAN_MOTION_DDOT":0},{"OBJECT_NAME":"STARLINK-32653","OBJECT_ID":"2024-229H","EPOCH":"2025-10-21T08:57:02.660544","MEAN_MOTION":15.27604891,"ECCENTRICITY":5.965e-5,"INCLINATION":43.0001,"RA_OF_ASC_NODE":330.6243,"ARG_OF_PERICENTER":250.7931,"MEAN_ANOMALY":109.2856,"EPHEMERIS_TYPE":0,"CLASSIFICATION_TYPE":"U","NORAD_CAT_ID":62199,"ELEMENT_SET_NO":999,"REV_AT_EPOCH":4933,"BSTAR":0.0012477312,"MEAN_MOTION_DOT":0.00034258,"MEAN_MOTION_DDOT":0},{"OBJECT_NAME":"STARLINK-32647","OBJECT_ID":"2024-229J","EPOCH":"2025-10-22T11:38:09.768192","MEAN_MOTION":15.27621237,"ECCENTRICITY":5.45e-5,"INCLINATION":43.0017,"RA_OF_ASC_NODE":331.3156,"ARG_OF_PERICENTER":3.0408,"MEAN_ANOMALY":357.0447,"EPHEMERIS_TYPE":0,"CLASSIFICATION_TYPE":"U","NORAD_CAT_ID":62200,"ELEMENT_SET_NO":999,"REV_AT_EPOCH":4942,"BSTAR":0.0015994,"MEAN_MOTION_DOT":0.00044069,"MEAN_MOTION_DDOT":0},{"OBJECT_NAME":"STARLINK-32667","OBJECT_ID":"2024-229K","EPOCH":"2025-10-22T12:20:30.111360","MEAN_MOTION":15.27617016,"ECCENTRICITY":0.0002007,"INCLINATION":43.0021,"RA_OF_ASC_NODE":330.6821,"ARG_OF_PERICENTER":258.188,"MEAN_ANOMALY":101.8746,"EPHEMERIS_TYPE":0,"CLASSIFICATION_TYPE":"U","NORAD_CAT_ID":62201,"ELEMENT_SET_NO":999,"REV_AT_EPOCH":4943,"BSTAR":0.0011192,"MEAN_MOTION_DOT":0.000307,"MEAN_MOTION_DDOT":0},{"OBJECT_NAME":"STARLINK-32655","OBJECT_ID":"2024-229L","EPOCH":"2025-10-22T11:54:48.447648","MEAN_MOTION":15.2761369,"ECCENTRICITY":0.0002408,"INCLINATION":43.0043,"RA_OF_ASC_NODE":331.4062,"ARG_OF_PERICENTER":285.1967,"MEAN_ANOMALY":74.8618,"EPHEMERIS_TYPE":0,"CLASSIFICATION_TYPE":"U","NORAD_CAT_ID":62202,"ELEMENT_SET_NO":999,"REV_AT_EPOCH":4942,"BSTAR":0.0010713,"MEAN_MOTION_DOT":0.00029366,"MEAN_MOTION_DDOT":0},{"OBJECT_NAME":"STARLINK-32665","OBJECT_ID":"2024-229M","EPOCH":"2025-10-22T11:28:53.440320","MEAN_MOTION":15.27525495,"ECCENTRICITY":0.0001147,"INCLINATION":43.0016,"RA_OF_ASC_NODE":331.2683,"ARG_OF_PERICENTER":281.1219,"MEAN_ANOMALY":78.9504,"EPHEMERIS_TYPE":0,"CLASSIFICATION_TYPE":"U","NORAD_CAT_ID":62203,"ELEMENT_SET_NO":999,"REV_AT_EPOCH":4942,"BSTAR":0.0015683,"MEAN_MOTION_DOT":0.00043075,"MEAN_MOTION_DDOT":0},{"OBJECT_NAME":"STARLINK-32664","OBJECT_ID":"2024-229N","EPOCH":"2025-10-22T11:43:42.754656","MEAN_MOTION":15.27578345,"ECCENTRICITY":0.0001324,"INCLINATION":43.0024,"RA_OF_ASC_NODE":331.3433,"ARG_OF_PERICENTER":44.1229,"MEAN_ANOMALY":315.9728,"EPHEMERIS_TYPE":0,"CLASSIFICATION_TYPE":"U","NORAD_CAT_ID":62204,"ELEMENT_SET_NO":999,"REV_AT_EPOCH":4942,"BSTAR":0.0010699,"MEAN_MOTION_DOT":0.00029296,"MEAN_MOTION_DDOT":0},{"OBJECT_NAME":"STARLINK-32660","OBJECT_ID":"2024-229P","EPOCH":"2025-10-22T10:52:49.808928","MEAN_MOTION":15.2764345,"ECCENTRICITY":0.0001298,"INCLINATION":43.0028,"RA_OF_ASC_NODE":317.2098,"ARG_OF_PERICENTER":271.3452,"MEAN_ANOMALY":88.7251,"EPHEMERIS_TYPE":0,"CLASSIFICATION_TYPE":"U","NORAD_CAT_ID":62205,"ELEMENT_SET_NO":999,"REV_AT_EPOCH":4958,"BSTAR":0.0014372,"MEAN_MOTION_DOT":0.00039577,"MEAN_MOTION_DDOT":0},{"OBJECT_NAME":"STARLINK-32448","OBJECT_ID":"2024-229Q","EPOCH":"2025-10-22T12:26:03.528960","MEAN_MOTION":15.27629498,"ECCENTRICITY":0.0001673,"INCLINATION":43.002,"RA_OF_ASC_NODE":330.7085,"ARG_OF_PERICENTER":256.6868,"MEAN_ANOMALY":103.3797,"EPHEMERIS_TYPE":0,"CLASSIFICATION_TYPE":"U","NORAD_CAT_ID":62206,"ELEMENT_SET_NO":999,"REV_AT_EPOCH":4943,"BSTAR":0.0015061,"MEAN_MOTION_DOT":0.00041479,"MEAN_MOTION_DDOT":0},{"OBJECT_NAME":"STARLINK-32430","OBJECT_ID":"2024-229R","EPOCH":"2025-10-22T11:46:13.971072","MEAN_MOTION":15.27656755,"ECCENTRICITY":0.000196,"INCLINATION":43.0024,"RA_OF_ASC_NODE":327.9105,"ARG_OF_PERICENTER":287.4931,"MEAN_ANOMALY":72.5706,"EPHEMERIS_TYPE":0,"CLASSIFICATION_TYPE":"U","NORAD_CAT_ID":62207,"ELEMENT_SET_NO":999,"REV_AT_EPOCH":4946,"BSTAR":0.0013725,"MEAN_MOTION_DOT":0.0003779,"MEAN_MOTION_DDOT":0},{"OBJECT_NAME":"STARLINK-32675","OBJECT_ID":"2024-229S","EPOCH":"2025-10-22T11:23:21.226272","MEAN_MOTION":15.27619391,"ECCENTRICITY":0.000176,"INCLINATION":43.0013,"RA_OF_ASC_NODE":331.2378,"ARG_OF_PERICENTER":274.4811,"MEAN_ANOMALY":85.584,"EPHEMERIS_TYPE":0,"CLASSIFICATION_TYPE":"U","NORAD_CAT_ID":62208,"ELEMENT_SET_NO":999,"REV_AT_EPOCH":4942,"BSTAR":0.0014446,"MEAN_MOTION_DOT":0.00039754,"MEAN_MOTION_DDOT":0},{"OBJECT_NAME":"STARLINK-32671","OBJECT_ID":"2024-229T","EPOCH":"2025-10-22T09:06:51.195744","MEAN_MOTION":15.27597028,"ECCENTRICITY":0.0001774,"INCLINATION":43.0019,"RA_OF_ASC_NODE":332.2451,"ARG_OF_PERICENTER":265.1668,"MEAN_ANOMALY":94.8981,"EPHEMERIS_TYPE":0,"CLASSIFICATION_TYPE":"U","NORAD_CAT_ID":62209,"ELEMENT_SET_NO":999,"REV_AT_EPOCH":4940,"BSTAR":0.00091875,"MEAN_MOTION_DOT":0.0002512,"MEAN_MOTION_DDOT":0},{"OBJECT_NAME":"STARLINK-32670","OBJECT_ID":"2024-229U","EPOCH":"2025-10-22T09:38:05.949600","MEAN_MOTION":15.27605488,"ECCENTRICITY":0.0001655,"INCLINATION":43.0026,"RA_OF_ASC_NODE":331.5514,"ARG_OF_PERICENTER":258.5087,"MEAN_ANOMALY":101.5579,"EPHEMERIS_TYPE":0,"CLASSIFICATION_TYPE":"U","NORAD_CAT_ID":62210,"ELEMENT_SET_NO":999,"REV_AT_EPOCH":4941,"BSTAR":0.0012537,"MEAN_MOTION_DOT":0.00034426,"MEAN_MOTION_DDOT":0},{"OBJECT_NAME":"STARLINK-32642","OBJECT_ID":"2024-229V","EPOCH":"2025-10-22T09:28:51.144096","MEAN_MOTION":15.27609061,"ECCENTRICITY":0.0001083,"INCLINATION":43.0017,"RA_OF_ASC_NODE":331.504,"ARG_OF_PERICENTER":251.8278,"MEAN_ANOMALY":108.2456,"EPHEMERIS_TYPE":0,"CLASSIFICATION_TYPE":"U","NORAD_CAT_ID":62211,"ELEMENT_SET_NO":999,"REV_AT_EPOCH":4941,"BSTAR":0.0012151,"MEAN_MOTION_DOT":0.00033357,"MEAN_MOTION_DDOT":0},{"OBJECT_NAME":"STARLINK-32668","OBJECT_ID":"2024-229W","EPOCH":"2025-10-22T11:51:48.803904","MEAN_MOTION":15.27613243,"ECCENTRICITY":0.0001075,"INCLINATION":43.0031,"RA_OF_ASC_NODE":327.9366,"ARG_OF_PERICENTER":263.2988,"MEAN_ANOMALY":96.7741,"EPHEMERIS_TYPE":0,"CLASSIFICATION_TYPE":"U","NORAD_CAT_ID":62212,"ELEMENT_SET_NO":999,"REV_AT_EPOCH":4946,"BSTAR":0.0010185,"MEAN_MOTION_DOT":0.000279,"MEAN_MOTION_DDOT":0},{"OBJECT_NAME":"STARLINK-32669","OBJECT_ID":"2024-229X","EPOCH":"2025-10-22T12:00:21.631104","MEAN_MOTION":15.27608064,"ECCENTRICITY":0.0001544,"INCLINATION":43.0037,"RA_OF_ASC_NODE":331.4272,"ARG_OF_PERICENTER":250.8676,"MEAN_ANOMALY":109.2009,"EPHEMERIS_TYPE":0,"CLASSIFICATION_TYPE":"U","NORAD_CAT_ID":62213,"ELEMENT_SET_NO":999,"REV_AT_EPOCH":4942,"BSTAR":0.0011146,"MEAN_MOTION_DOT":0.00030563,"MEAN_MOTION_DDOT":0}]
